GLOBALSTAR M067         
1 32263U 07048A   25152.56723530 -.00000045  00000+0  38537-3 0  9999
2 32263  51.9731  81.6354 0001127 340.1942 190.4914 12.40673066807542
GLOBALSTAR M070         
1 32264U 07048B   25152.55318559 -.00000089  00000+0  83862-4 0  9990
2 32264  51.9723 176.1312 0000235 106.9074  29.7897 12.62319072811694
GLOBALSTAR M066         
1 32265U 07048C   25152.52181343 -.00000063  00000+0  26167-3 0  9993
2 32265  51.9654  70.7891 0001087 193.4240 338.1573 12.35104190813368
GLOBALSTAR M068         
1 32266U 07048D   25152.88584971 -.00000065  00000+0  21368-3 0  9997
2 32266  51.9903 348.9008 0001862  95.7702  13.7839 12.62823816815911
GLOBALSTAR M079         
1 37188U 10054A   25152.40868251 -.00000102  00000+0  10192-4 0  9996
2 37188  52.0014 187.8179 0000278 226.8932 146.8255 12.62264929674462
GLOBALSTAR M074         
1 37189U 10054B   25152.53746766 -.00000099  00000+0  24640-4 0  9995
2 37189  51.9992 186.7519 0000095  38.4597  79.7936 12.62270207675156
GLOBALSTAR M076         
1 37190U 10054C   25152.38219626 -.00000102  00000+0  80758-5 0  9998
2 37190  52.0005 187.3933 0000149 290.7641  82.0552 12.62263292674780
GLOBALSTAR M077         
1 37191U 10054D   25152.29007235 -.00000114  00000+0 -57307-4 0  9997
2 37191  52.0043 144.5249 0000188  23.8493 349.8327 12.62268353675149
